NORAD_CAT_ID,OBJECT_NAME,OBJECT_TYPE,EPOCH,MEAN_MOTION,ECCENTRICITY,INCLINATION,RA_OF_ASC_NODE,ARG_OF_PERICENTER,MEAN_ANOMALY,BSTAR,MEAN_MOTION_DOT,MEAN_MOTION_DDOT,TLE_LINE0,TLE_LINE1,TLE_LINE2,SEMIMAJOR_AXIS,PERIOD,APOGEE,PERIGEE,DECAYED
53002.0,STARLINK-4121,PAYLOAD,2024-02-02 21:13:18,15.08836523,0.0001634,53.2187,291.9572,102.7312,257.3863,-8.315e-06,-4.2e-06,0.0,0 STARLINK-4121,1 53002U 22076S   24033.88424262 -.00000420  00000-0 -83150-5 0  9995,2 53002  53.2187 291.9572 0001634 102.7312 257.3863 15.08836523 87238,6917.891,95.438,540.886,538.626,0.0
53002.0,STARLINK-4121,PAYLOAD,2024-02-03 01:59:28,15.08837096,0.000148,53.2177,291.0638,90.4407,269.6755,4.381e-05,4.09e-06,0.0,0 STARLINK-4121,1 53002U 22076S   24034.08296401  .00000409  00000-0  43810-4 0  9993,2 53002  53.2177 291.0638 0001480  90.4407 269.6755 15.08837096 87735,6917.889,95.438,540.778,538.73,0.0
53002.0,STARLINK-4121,PAYLOAD,2024-02-03 22:39:28,15.08838817,0.0001547,53.2174,287.1977,82.5846,277.5322,9.1033e-05,1.161e-05,0.0,0 STARLINK-4121,1 53002U 22076S   24034.94408342  .00001161  00000-0  91033-4 0  9993,2 53002  53.2174 287.1977 0001547  82.5846 277.5322 15.08838817 87399,6917.884,95.438,540.819,538.679,0.0
53002.0,STARLINK-4121,PAYLOAD,2024-02-04 00:14:51,15.08840988,0.0001609,53.2178,286.9007,76.1018,284.0153,0.00010748,1.423e-05,0.0,0 STARLINK-4121,1 53002U 22076S   24035.01032220  .00001423  00000-0  10748-3 0  9994,2 53002  53.2178 286.9007 0001609  76.1018 284.0153 15.08840988 87402,6917.877,95.437,540.855,538.629,0.0
53002.0,STARLINK-4121,PAYLOAD,2024-02-04 20:54:52,15.08839513,0.000163,53.2176,283.035,75.0192,285.0981,7.2845e-05,8.71e-06,0.0,0 STARLINK-4121,1 53002U 22076S   24035.87144522  .00000871  00000-0  72845-4 0  9990,2 53002  53.2176 283.0350 0001630  75.0192 285.0981 15.08839513 88003,6917.882,95.438,540.874,538.619,0.0
53002.0,STARLINK-4121,PAYLOAD,2024-02-04 22:30:15,15.0883985,0.0001608,53.2174,282.7376,75.2031,284.9139,7.3699e-05,8.85e-06,0.0,0 STARLINK-4121,1 53002U 22076S   24035.93768495  .00000885  00000-0  73699-4 0  9991,2 53002  53.2174 282.7376 0001608  75.2031 284.9139 15.08839850 87549,6917.881,95.438,540.858,538.633,0.0
53002.0,STARLINK-4121,PAYLOAD,2024-02-05 01:41:02,15.08814585,0.000158,53.2176,282.1408,79.2145,280.9025,0.00052265,8.034e-05,0.0,0 STARLINK-4121,1 53002U 22076S   24036.07017126  .00008034  00000-0  52265-3 0  9994,2 53002  53.2176 282.1408 0001580  79.2145 280.9025 15.08814585 88033,6917.958,95.439,540.916,538.73,0.0
53002.0,STARLINK-4121,PAYLOAD,2024-02-05 09:37:57,15.08842132,0.0001368,53.2168,280.6561,91.8551,268.2598,7.1352e-05,8.48e-06,0.0,0 STARLINK-4121,1 53002U 22076S   24036.40136204  .00000848  00000-0  71352-4 0  9994,2 53002  53.2168 280.6561 0001368  91.8551 268.2598 15.08842132 88080,6917.874,95.437,540.685,538.793,0.0
53002.0,STARLINK-4121,PAYLOAD,2024-02-05 22:21:02,15.08841765,0.0001378,53.2165,278.277,102.9022,257.2124,9.8935e-05,1.287e-05,0.0,0 STARLINK-4121,1 53002U 22076S   24036.93128039  .00001287  00000-0  98935-4 0  9993,2 53002  53.2165 278.2770 0001378 102.9022 257.2124 15.08841765 87690,6917.875,95.437,540.693,538.787,0.0
53002.0,STARLINK-4121,PAYLOAD,2024-02-06 01:31:48,15.08849706,0.0001357,53.2165,277.6803,104.2531,255.8612,5.5675e-05,5.98e-06,0.0,0 STARLINK-4121,1 53002U 22076S   24037.06375611  .00000598  00000-0  55675-4 0  9996,2 53002  53.2165 277.6803 0001357 104.2531 255.8612 15.08849706 87719,6917.851,95.437,540.654,538.777,0.0
53002.0,STARLINK-4121,PAYLOAD,2024-02-06 19:01:03,15.08846701,0.0001513,53.2172,274.4083,113.8711,246.244,5.8968e-06,-1.94e-06,0.0,0 STARLINK-4121,1 53002U 22076S   24037.79239802 -.00000194  00000-0  58968-5 0  9999,2 53002  53.2172 274.4083 0001513 113.8711 246.2440 15.08846701 88291,6917.86,95.437,540.772,538.678,0.0
53002.0,STARLINK-4121,PAYLOAD,2024-02-06 22:11:49,15.08847645,0.0001481,53.2175,273.8137,95.5647,264.5514,3.1727e-05,2.17e-06,0.0,0 STARLINK-4121,1 53002U 22076S   24037.92487724  .00000217  00000-0  31727-4 0  9990,2 53002  53.2175 273.8137 0001481  95.5647 264.5514 15.08847645 87848,6917.857,95.437,540.747,538.697,0.0
53002.0,STARLINK-4121,PAYLOAD,2024-02-07 01:22:35,15.08849728,0.0001515,53.2175,273.2182,110.7577,249.3577,3.4351e-05,2.59e-06,0.0,0 STARLINK-4121,1 53002U 22076S   24038.05735448  .00000259  00000-0  34351-4 0  9996,2 53002  53.2175 273.2182 0001515 110.7577 249.3577 15.08849728 87868,6917.851,95.437,540.764,538.668,0.0
53002.0,STARLINK-4121,PAYLOAD,2024-02-07 18:51:50,15.08837496,0.0001732,53.217,269.9458,121.5539,238.5623,-1.1406e-05,-4.7e-06,0.0,0 STARLINK-4121,1 53002U 22076S   24038.78600378 -.00000470  00000-0 -11406-4 0  9992,2 53002  53.2170 269.9458 0001732 121.5539 238.5623 15.08837496 88446,6917.888,95.438,540.951,538.555,0.0
53002.0,STARLINK-4121,PAYLOAD,2024-02-07 22:02:37,15.08836551,0.0001396,53.2169,269.353,101.3193,258.7956,-1.0978e-05,-4.63e-06,0.0,0 STARLINK-4121,1 53002U 22076S   24038.91848557 -.00000463  00000-0 -10978-4 0  9995,2 53002  53.2169 269.3530 0001396 101.3193 258.7956 15.08836551 87990,6917.891,95.438,540.722,538.79,0.0
53002.0,STARLINK-4121,PAYLOAD,2024-02-08 01:13:23,15.08835987,0.0001446,53.2173,268.7595,107.0868,253.0282,-1.8268e-05,-5.79e-06,0.0,0 STARLINK-4121,1 53002U 22076S   24039.05096624 -.00000579  00000-0 -18268-4 0  9999,2 53002  53.2173 268.7595 0001446 107.0868 253.0282 15.08835987 88013,6917.893,95.438,540.758,538.757,0.0
53002.0,STARLINK-4121,PAYLOAD,2024-02-08 20:18:01,15.08840768,0.0001205,53.2162,265.1923,101.6267,258.4861,-1.5412e-05,-5.33e-06,0.0,0 STARLINK-4121,1 53002U 22076S   24039.84584644 -.00000533  00000-0 -15412-4 0  9998,2 53002  53.2162 265.1923 0001205 101.6267 258.4861 15.08840768 88603,6917.878,95.438,540.577,538.909,0.0
53002.0,STARLINK-4121,PAYLOAD,2024-02-09 13:47:15,15.08833134,0.0001228,53.216,261.9213,97.5244,262.5888,0.00011417,1.529e-05,0.0,0 STARLINK-4121,1 53002U 22076S   24040.57449043  .00001529  00000-0  11417-3 0  9997,2 53002  53.2160 261.9213 0001228  97.5244 262.5888 15.08833134 88244,6917.901,95.438,540.616,538.917,0.0
53002.0,STARLINK-4121,PAYLOAD,2024-02-09 21:44:11,15.08837271,0.0001249,53.216,260.4348,97.6175,262.4959,0.00011448,1.534e-05,0.0,0 STARLINK-4121,1 53002U 22076S   24040.90568916  .00001534  00000-0  11448-3 0  9995,2 53002  53.2160 260.4348 0001249  97.6175 262.4959 15.08837271 88765,6917.889,95.438,540.618,538.89,0.0
53002.0,STARLINK-4121,PAYLOAD,2024-02-10 19:59:35,15.08849756,0.0001411,53.2165,256.2741,83.8427,276.2726,0.000113,1.511e-05,0.0,0 STARLINK-4121,1 53002U 22076S   24041.83304429  .00001511  00000-0  11300-3 0  9997,2 53002  53.2165 256.2741 0001411  83.8427 276.2726 15.08849756 88900,6917.851,95.437,540.692,538.739,0.0
53002.0,STARLINK-4121,PAYLOAD,2024-02-10 21:34:57,15.0885765,0.0001306,53.2162,255.9747,87.6483,272.4658,0.00025212,3.729e-05,0.0,0 STARLINK-4121,1 53002U 22076S   24041.89927586  .00003729  00000-0  25212-3 0  9998,2 53002  53.2162 255.9747 0001306  87.6483 272.4658 15.08857650 88449,6917.826,95.436,540.595,538.788,0.0
53002.0,STARLINK-4121,PAYLOAD,2024-02-11 00:45:43,15.08859236,0.0001361,53.2161,255.3793,83.9898,276.1249,0.00025936,3.844e-05,0.0,0 STARLINK-4121,1 53002U 22076S   24042.03175392  .00003844  00000-0  25936-3 0  9996,2 53002  53.2161 255.3793 0001361  83.9898 276.1249 15.08859236 88936,6917.822,95.436,540.628,538.745,0.0
53002.0,STARLINK-4121,PAYLOAD,2024-02-11 13:28:50,15.08841171,0.0001652,53.2157,252.9988,94.8265,265.2916,5.1109e-05,5.25e-06,0.0,0 STARLINK-4121,1 53002U 22076S   24042.56169017  .00000525  00000-0  51109-4 0  9996,2 53002  53.2157 252.9988 0001652  94.8265 265.2916 15.08841171 88548,6917.877,95.437,540.885,538.599,0.0
53002.0,STARLINK-4121,PAYLOAD,2024-02-11 19:50:22,15.08842146,0.0001372,53.2158,251.8099,111.4731,248.6407,5.971e-05,6.63e-06,0.0,0 STARLINK-4121,1 53002U 22076S   24042.82664755  .00000663  00000-0  59710-4 0  9993,2 53002  53.2158 251.8099 0001372 111.4731 248.6407 15.08842146 89053,6917.874,95.437,540.688,538.79,0.0
53002.0,STARLINK-4121,PAYLOAD,2024-02-11 21:25:45,15.08841377,0.0001309,53.2163,251.5142,97.0991,263.015,7.1091e-05,8.44e-06,0.0,0 STARLINK-4121,1 53002U 22076S   24042.89288835  .00000844  00000-0  71091-4 0  9998,2 53002  53.2163 251.5142 0001309  97.0991 263.0150 15.08841377 88591,6917.876,95.437,540.647,538.836,0.0
53002.0,STARLINK-4121,PAYLOAD,2024-02-12 13:19:36,15.08850567,0.0001365,53.2161,248.542,84.7511,275.3637,-5.8734e-05,-1.223e-05,0.0,0 STARLINK-4121,1 53002U 22076S   24043.55528880 -.00001223  00000-0 -58734-4 0  9992,2 53002  53.2161 248.5420 0001365  84.7511 275.3637 15.08850567 88695,6917.848,95.437,540.657,538.769,0.0
53002.0,STARLINK-4121,PAYLOAD,2024-02-12 21:16:32,15.0884419,0.0001435,53.2152,247.0551,83.1917,276.9239,-7.5833e-05,-1.495e-05,0.0,0 STARLINK-4121,1 53002U 22076S   24043.88648601 -.00001495  00000-0 -75833-4 0  9992,2 53002  53.2152 247.0551 0001435  83.1917 276.9239 15.08844190 88741,6917.868,95.437,540.725,538.74,0.0
53002.0,STARLINK-4121,PAYLOAD,2024-02-13 06:48:51,15.08842545,0.0001512,53.2153,245.2707,78.0691,282.047,-3.6947e-05,-8.76e-06,0.0,0 STARLINK-4121,1 53002U 22076S   24044.28392817 -.00000876  00000-0 -36947-4 0  9997,2 53002  53.2153 245.2707 0001512  78.0691 282.0470 15.08842545 88807,6917.873,95.437,540.784,538.692,0.0
53002.0,STARLINK-4121,PAYLOAD,2024-02-13 19:31:56,15.0883869,0.0001441,53.215,242.8911,84.6003,275.5154,0.00013284,1.827e-05,0.0,0 STARLINK-4121,1 53002U 22076S   24044.81385235  .00001827  00000-0  13284-3 0  9995,2 53002  53.2150 242.8911 0001441  84.6003 275.5154 15.08838690 89358,6917.884,95.438,540.746,538.753,0.0
53002.0,STARLINK-4121,PAYLOAD,2024-02-14 06:39:38,15.08840545,0.0001454,53.215,240.8088,85.5086,274.6072,0.00015235,2.138e-05,0.0,0 STARLINK-4121,1 53002U 22076S   24045.27753199  .00002138  00000-0  15235-3 0  9998,2 53002  53.2150 240.8088 0001454  85.5086 274.6072 15.08840545 88952,6917.879,95.438,540.75,538.738,0.0
